{
  "norad_id": 53600,
  "name": "STARLINK-4677",
  "history": [
    {
      "epoch": "2026-03-28T14:22:48.367488Z",
      "apogee_km": 540.6164883516094,
      "perigee_km": 538.8538145274224,
      "latitude_deg": -4.829261227504686e-06,
      "longitude_deg": 117.91885959280582,
      "height_km": 540.6092844605487,
      "semi_major_axis_km": 6917.872151439516,
      "eccentricity": 0.0001274,
      "inclination_deg": 53.2164,
      "raan_deg": 159.6377,
      "arg_perigee_deg": 88.5964,
      "mean_anomaly_deg": 271.5174,
      "mean_motion_rev_day": 15.08842695
    }
  ]
}